JILIN-1                 
1 40961U 15057D   26186.42561126  .00001114  00000+0  16013-3 0  9998
2 40961  97.6512 184.8872 0016321 198.9248 161.1359 14.78191840578306
JILIN-1 03              
1 41914U 17002B   26186.45807762  .00016341  00000+0  38395-3 0  9996
2 41914  97.1951 193.2894 0008017 105.4488 254.7645 15.42050672524674
JILIN-1 04              
1 43022U 17074A   26186.37811854  .00018108  00000+0  41308-3 0  9996
2 43022  97.4869 296.4824 0005109 125.7804 234.3919 15.42942949477078
JILIN-1 05              
1 43023U 17074B   26186.38577606  .00012595  00000+0  38283-3 0  9994
2 43023  97.4874 292.7903 0005895 152.4137 207.7420 15.34175483476791
JILIN-1 06              
1 43024U 17074C   26186.35992264  .00008724  00000+0  26811-3 0  9996
2 43024  97.4800 289.7499 0007320 164.3606 195.7864 15.33919278476622
JILIN-1 07              
1 43159U 18008E   26186.47780983  .00011814  00000+0  34922-3 0  9995
2 43159  97.1765 205.9210 0007870   6.5509 353.5837 15.35047506467800
JILIN-1 08              
1 43160U 18008F   26186.49065355  .00008354  00000+0  25666-3 0  9998
2 43160  97.1802 205.2298 0006500  27.2153 332.9430 15.33931133467757
JILIN-1 09              
1 43943U 19005B   26186.40826637  .00007349  00000+0  33755-3 0  9995
2 43943  97.4741 281.2173 0003102  57.2955 302.8579 15.20682956411914
JILIN-1 10              
1 43946U 19005E   26186.42362596  .00008797  00000+0  34537-3 0  9996
2 43946  97.4791 285.2307 0007602 203.9494 156.1392 15.25930890412093
