{"fetched_at":"2026-07-06T08:47:06.888Z","source":"https://celestrak.org/NORAD/elements/gp.php?NAME=JILIN&FORMAT=JSON","constellation":"jilin-1-early","records":[{"OBJECT_NAME":"JILIN-1","OBJECT_ID":"2015-057D","EPOCH":"2026-07-05T10:12:52.812000","CLASSIFICATION_TYPE":"U","MEAN_MOTION":14.7819184,"ECCENTRICITY":0.0016321,"INCLINATION":97.6512,"RA_OF_ASC_NODE":184.8872,"ARG_OF_PERICENTER":198.9248,"MEAN_ANOMALY":161.1359,"EPHEMERIS_TYPE":0,"NORAD_CAT_ID":40961,"ELEMENT_SET_NO":999,"REV_AT_EPOCH":57830,"BSTAR":0.00016013,"MEAN_MOTION_DOT":0.00001114,"MEAN_MOTION_DDOT":0},{"OBJECT_NAME":"JILIN-1 03","OBJECT_ID":"2017-002B","EPOCH":"2026-07-05T10:59:37.906368","CLASSIFICATION_TYPE":"U","MEAN_MOTION":15.42050672,"ECCENTRICITY":0.0008018,"INCLINATION":97.1951,"RA_OF_ASC_NODE":193.2894,"ARG_OF_PERICENTER":105.4488,"MEAN_ANOMALY":254.7645,"EPHEMERIS_TYPE":0,"NORAD_CAT_ID":41914,"ELEMENT_SET_NO":999,"REV_AT_EPOCH":52467,"BSTAR":0.00038395,"MEAN_MOTION_DOT":0.00016341,"MEAN_MOTION_DDOT":0},{"OBJECT_NAME":"JILIN-1 04","OBJECT_ID":"2017-074A","EPOCH":"2026-07-05T09:04:29.440992","CLASSIFICATION_TYPE":"U","MEAN_MOTION":15.42942949,"ECCENTRICITY":0.0005109,"INCLINATION":97.4869,"RA_OF_ASC_NODE":296.4824,"ARG_OF_PERICENTER":125.7804,"MEAN_ANOMALY":234.3919,"EPHEMERIS_TYPE":0,"NORAD_CAT_ID":43022,"ELEMENT_SET_NO":999,"REV_AT_EPOCH":47707,"BSTAR":0.00041308,"MEAN_MOTION_DOT":0.00018108,"MEAN_MOTION_DDOT":0},{"OBJECT_NAME":"JILIN-1 05","OBJECT_ID":"2017-074B","EPOCH":"2026-07-05T09:15:31.050720","CLASSIFICATION_TYPE":"U","MEAN_MOTION":15.34175483,"ECCENTRICITY":0.0005896,"INCLINATION":97.4874,"RA_OF_ASC_NODE":292.7903,"ARG_OF_PERICENTER":152.4137,"MEAN_ANOMALY":207.742,"EPHEMERIS_TYPE":0,"NORAD_CAT_ID":43023,"ELEMENT_SET_NO":999,"REV_AT_EPOCH":47679,"BSTAR":0.00038283,"MEAN_MOTION_DOT":0.00012595,"MEAN_MOTION_DDOT":0},{"OBJECT_NAME":"JILIN-1 06","OBJECT_ID":"2017-074C","EPOCH":"2026-07-05T08:38:17.316096","CLASSIFICATION_TYPE":"U","MEAN_MOTION":15.33919278,"ECCENTRICITY":0.000732,"INCLINATION":97.48,"RA_OF_ASC_NODE":289.7499,"ARG_OF_PERICENTER":164.3606,"MEAN_ANOMALY":195.7864,"EPHEMERIS_TYPE":0,"NORAD_CAT_ID":43024,"ELEMENT_SET_NO":999,"REV_AT_EPOCH":47662,"BSTAR":0.00026811,"MEAN_MOTION_DOT":0.00008724,"MEAN_MOTION_DDOT":0},{"OBJECT_NAME":"JILIN-1 07","OBJECT_ID":"2018-008E","EPOCH":"2026-07-05T11:28:02.769312","CLASSIFICATION_TYPE":"U","MEAN_MOTION":15.35047506,"ECCENTRICITY":0.0007871,"INCLINATION":97.1765,"RA_OF_ASC_NODE":205.921,"ARG_OF_PERICENTER":6.5509,"MEAN_ANOMALY":353.5837,"EPHEMERIS_TYPE":0,"NORAD_CAT_ID":43159,"ELEMENT_SET_NO":999,"REV_AT_EPOCH":46780,"BSTAR":0.00034922,"MEAN_MOTION_DOT":0.00011814,"MEAN_MOTION_DDOT":0},{"OBJECT_NAME":"JILIN-1 08","OBJECT_ID":"2018-008F","EPOCH":"2026-07-05T11:46:32.465856","CLASSIFICATION_TYPE":"U","MEAN_MOTION":15.33931133,"ECCENTRICITY":0.0006501,"INCLINATION":97.1802,"RA_OF_ASC_NODE":205.2298,"ARG_OF_PERICENTER":27.2153,"MEAN_ANOMALY":332.943,"EPHEMERIS_TYPE":0,"NORAD_CAT_ID":43160,"ELEMENT_SET_NO":999,"REV_AT_EPOCH":46775,"BSTAR":0.00025666,"MEAN_MOTION_DOT":0.00008354,"MEAN_MOTION_DDOT":0},{"OBJECT_NAME":"JILIN-1 09","OBJECT_ID":"2019-005B","EPOCH":"2026-07-05T09:47:54.214368","CLASSIFICATION_TYPE":"U","MEAN_MOTION":15.20682956,"ECCENTRICITY":0.0003102,"INCLINATION":97.4741,"RA_OF_ASC_NODE":281.2173,"ARG_OF_PERICENTER":57.2955,"MEAN_ANOMALY":302.8579,"EPHEMERIS_TYPE":0,"NORAD_CAT_ID":43943,"ELEMENT_SET_NO":999,"REV_AT_EPOCH":41191,"BSTAR":0.00033755,"MEAN_MOTION_DOT":0.00007349,"MEAN_MOTION_DDOT":0},{"OBJECT_NAME":"JILIN-1 10","OBJECT_ID":"2019-005E","EPOCH":"2026-07-05T10:10:01.282080","CLASSIFICATION_TYPE":"U","MEAN_MOTION":15.2593089,"ECCENTRICITY":0.0007603,"INCLINATION":97.4791,"RA_OF_ASC_NODE":285.2307,"ARG_OF_PERICENTER":203.9494,"MEAN_ANOMALY":156.1392,"EPHEMERIS_TYPE":0,"NORAD_CAT_ID":43946,"ELEMENT_SET_NO":999,"REV_AT_EPOCH":41209,"BSTAR":0.00034537,"MEAN_MOTION_DOT":0.00008797,"MEAN_MOTION_DDOT":0}]}
